1 40534U 15013A   18040.25410486 -.00000095  00000-0  00000-0 0  9994
2 40534  54.8248 330.0709 0026637 355.5652   4.4253  2.00571468 20650
1 40534U 15013A   18040.75266612 -.00000094  00000-0  00000+0 0  9997
2 40534  54.8245 330.0506 0026654 355.6077   4.3831  2.00571433 21095
1 40534U 15013A   18041.25122734 -.00000092  00000-0  00000-0 0  9998
2 40534  54.8242 330.0303 0026673 355.6601   4.3311  2.00571411 20673
1 40534U 15013A   18042.24835039 -.00000086  00000-0  00000+0 0  9999
2 40534  54.8236 329.9896 0026699 355.7373   4.2553  2.00571383 21121
1 40534U 15013A   18042.74691293 -.00000083  00000-0  00000+0 0  9993
2 40534  54.8234 329.9693 0026720 355.7971   4.1968  2.00571351 21138
1 40534U 15013A   18043.24547611 -.00000080  00000-0  00000-0 0  9991
2 40534  54.8231 329.9490 0026734 355.8401   4.1551  2.00571311 20711
1 40534U 15013A   18043.74403959 -.00000076  00000-0  00000+0 0  9996
2 40534  54.8228 329.9287 0026750 355.8933   4.1036  2.00571271 21151
1 40534U 15013A   18044.24260279 -.00000072  00000-0  00000-0 0  9995
2 40534  54.8225 329.9084 0026762 355.9449   4.0538  2.00571256 20731
1 40534U 15013A   18044.74116635 -.00000069  00000-0  00000+0 0  9991
2 40534  54.8222 329.8881 0026776 355.9865   4.0142  2.00571232 21173
1 40534U 15013A   18046.23685936 -.00000058  00000-0  00000+0 0  9990
2 40534  54.8213 329.8272 0026819 356.1181   3.8892  2.00571117 21204
1 40534U 15013A   18047.23398695 -.00000053  00000-0  00000+0 0  9999
2 40534  54.8207 329.7865 0026846 356.2049   3.8069  2.00571090 21226
1 40534U 15013A   18049.22824761 -.00000048  00000-0  00000+0 0  9992
2 40534  54.8196 329.7051 0026901 356.3951   3.6238  2.00570783 21263
1 40534U 15013A   18050.22537187 -.00000048  00000-0  00000-0 0  9998
2 40534  54.8190 329.6645 0026934 356.4926   3.5281  2.00570749 20857
1 40534U 15013A   18050.72393477 -.00000048  00000-0  00000+0 0  9994
2 40534  54.8187 329.6442 0026946 356.5432   3.4779  2.00570697 21296
1 40534U 15013A   18051.22249704 -.00000049  00000-0  00000-0 0  9995
2 40534  54.8184 329.6238 0026958 356.5861   3.4350  2.00570652 20874
1 40534U 15013A   18051.72105901 -.00000050  00000-0  00000+0 0  9991
2 40534  54.8181 329.6035 0026971 356.6389   3.3819  2.00570600 21319
1 40534U 15013A   18053.21674219 -.00000055  00000-0  00000-0 0  9996
2 40534  54.8172 329.5425 0027006 356.7765   3.2418  2.00570502 20910
1 40534U 15013A   18053.71530327 -.00000057  00000-0  00000+0 0  9993
2 40534  54.8169 329.5221 0027018 356.8212   3.1960  2.00570467 21351
1 40534U 15013A   18054.21386542 -.00000058  00000-0  00000-0 0  9999
2 40534  54.8166 329.5017 0027030 356.8925   3.1238  2.00570401 20935
1 40534U 15013A   18054.71242645 -.00000060  00000-0  00000-0 0  9992
2 40534  54.8164 329.4814 0027042 356.9373   3.0781  2.00570386 20943
1 40534U 15013A   18055.21098868 -.00000061  00000-0  00000+0 0  9994
2 40534  54.8161 329.4611 0027054 356.9766   3.0382  2.00570342 21382
1 40534U 15013A   18056.20811417 -.00000062  00000-0  00000+0 0  9998
2 40534  54.8155 329.4204 0027091 357.0637   2.9507  2.00570264 21406
1 40534U 15013A   18056.70667777 -.00000062  00000-0  00000+0 0  9991
2 40534  54.8152 329.4000 0027103 357.1178   2.8969  2.00570229 21415
1 40534U 15013A   18058.70093667 -.00000062  00000-0  00000+0 0  9994
2 40534  54.8141 329.3186 0027152 357.3151   2.7041  2.00570144 21454
1 40534U 15013A   18059.19950309 -.00000062  00000-0  00000-0 0  9994
2 40534  54.8138 329.2982 0027154 357.3733   2.6477  2.00570104 21033
1 40534U 15013A   18059.69806844 -.00000063  00000-0  00000+0 0  9993
2 40534  54.8135 329.2779 0027164 357.4234   2.5992  2.00570106 21473
1 40534U 15013A   18060.69520083 -.00000064  00000-0  00000+0 0  9994
2 40534  54.8129 329.2372 0027188 357.5199   2.5059  2.00570046 21491
1 40534U 15013A   18061.19376569 -.00000066  00000-0  00000-0 0  9991
2 40534  54.8126 329.2169 0027184 357.5268   2.5002  2.00570056 21078
1 40534U 15013A   18061.69233269 -.00000068  00000-0  00000+0 0  9996
2 40534  54.8123 329.1965 0027174 357.6280   2.4005  2.00570007 21519
1 40534U 15013A   18063.18802546 -.00000075  00000-0  00000+0 0  9990
2 40534  54.8115 329.1355 0027213 357.7466   2.2835  2.00570015 21545
1 40534U 15013A   18063.18802629 -.00000075  00000-0  00000-0 0  9993
2 40534  54.8115 329.1355 0027230 357.7650   2.2653  2.00569973 21111
1 40534U 15013A   18064.18515499 -.00000080  00000-0  00000+0 0  9995
2 40534  54.8109 329.0948 0027247 357.8328   2.1973  2.00569930 21568
1 40534U 15013A   18065.18228141 -.00000084  00000-0  00000+0 0  9995
2 40534  54.8103 329.0541 0027278 357.9353   2.0942  2.00569925 21585
1 40534U 15013A   18065.68084644 -.00000085  00000-0  00000+0 0  9999
2 40534  54.8100 329.0337 0027290 357.9759   2.0531  2.00569860 21592
1 40534U 15013A   18066.17940995 -.00000086  00000-0  00000-0 0  9996
2 40534  54.8097 329.0134 0027301 358.0204   2.0081  2.00569853 21178
1 40534U 15013A   18066.67797251 -.00000087  00000-0  00000-0 0  9997
2 40534  54.8094 328.9930 0027311 358.0719   1.9563  2.00569885 21188
1 40534U 15013A   18067.17653613 -.00000087  00000-0  00000+0 0  9995
2 40534  54.8092 328.9727 0027319 358.1136   1.9143  2.00569888 21628
1 40534U 15013A   18067.17653697 -.00000087  00000-0  00000+0 0  9997
2 40534  54.8092 328.9727 0027325 358.1304   1.8976  2.00569857 21621
1 40534U 15013A   18067.17653697 -.00000087  00000-0  00000-0 0  9998
2 40534  54.8092 328.9727 0027325 358.1304   1.8976  2.00569857 21193
1 40534U 15013A   18068.17366725 -.00000084  00000-0  00000-0 0  9999
2 40534  54.8086 328.9320 0027347 358.2436   1.7845  2.00569784 21212
1 40534U 15013A   18068.67223205 -.00000082  00000-0  00000+0 0  9996
2 40534  54.8083 328.9117 0027356 358.2892   1.7392  2.00569774 21653
1 40534U 15013A   18069.66936349 -.00000076  00000-0  00000+0 0  9999
2 40534  54.8078 328.8710 0027377 358.3732   1.6565  2.00569723 21679
1 40534U 15013A   18070.16792977 -.00000073  00000-0  00000+0 0  9990
2 40534  54.8075 328.8507 0027387 358.4059   1.6247  2.00569697 21682
1 40534U 15013A   18070.16792977 -.00000073  00000-0  00000-0 0  9991
2 40534  54.8075 328.8507 0027387 358.4059   1.6247  2.00569697 21255
1 40534U 15013A   18071.66363100 -.00000062  00000-0  00000+0 0  9996
2 40534  54.8066 328.7897 0027411 358.5375   1.4975  2.00569605 21712
1 40534U 15013A   18072.66076611 -.00000054  00000-0  00000+0 0  9996
2 40534  54.8061 328.7490 0027426 358.6293   1.4095  2.00569553 21739
1 40534U 15013A   18074.15647067 -.00000045  00000-0  00000+0 0  9991
2 40534  54.8052 328.6880 0027453 358.7309   1.3137  2.00569425 21767
1 40534U 15013A   18074.15647067 -.00000045  00000-0  00000-0 0  9992
2 40534  54.8052 328.6880 0027453 358.7309   1.3137  2.00569425 21330
1 40534U 15013A   18075.65217451 -.00000039  00000-0  00000+0 0  9990
2 40534  54.8044 328.6269 0027475 358.8791   1.1708  2.00569302 21798
1 40534U 15013A   18075.65217486 -.00000039  00000-0  00000-0 0  9999
2 40534  54.8044 328.6269 0027463 358.8619   1.1878  2.00569315 21369
1 40534U 15013A   18076.15074212 -.00000038  00000-0  00000-0 0  9992
2 40534  54.8041 328.6065 0027482 358.9224   1.1287  2.00569256 21373
1 40534U 15013A   18076.64930987 -.00000037  00000-0  00000+0 0  9994
2 40534  54.8039 328.5862 0027489 358.9585   1.0935  2.00569192 21818
1 40534U 15013A   18077.14787704 -.00000037  00000-0  00000-0 0  9998
2 40534  54.8036 328.5658 0027496 359.0110   1.0416  2.00569133 21394
1 40534U 15013A   18077.64644302 -.00000037  00000-0  00000+0 0  9998
2 40534  54.8033 328.5455 0027502 359.0528   1.0001  2.00569105 21835
1 40534U 15013A   18079.14214159 -.00000040  00000-0  00000+0 0  9992
2 40534  54.8025 328.4844 0027518 359.1475   0.9039  2.00568922 21864
1 40534U 15013A   18080.63783387 -.00000044  00000-0  00000+0 0  9996
2 40534  54.8017 328.4233 0027532 359.3163   0.7315  2.00568860 21898
1 40534U 15013A   18080.63783419 -.00000044  00000-0  00000-0 0  9993
2 40534  54.8017 328.4233 0027523 359.2955   0.7522  2.00568870 21460
1 40534U 15013A   18081.63496316 -.00000047  00000-0  00000+0 0  9993
2 40534  54.8012 328.3826 0027547 359.3841   0.6609  2.00568785 21913
1 40534U 15013A   18082.13352584 -.00000048  00000-0  00000-0 0  9999
2 40534  54.8009 328.3621 0027561 359.3707   0.6727  2.00568807 21498
1 40534U 15013A   18083.13066114 -.00000049  00000-0  00000+0 0  9991
2 40534  54.8003 328.3214 0027570 359.4510   0.5907  2.00568632 21948
1 40534U 15013A   18084.12779301 -.00000050  00000-0  00000-0 0  9993
2 40534  54.7998 328.2807 0027587 359.5411   0.5003  2.00568619 21533
1 40534U 15013A   18084.62636164 -.00000050  00000-0  00000-0 0  9997
2 40534  54.7995 328.2603 0027589 359.5931   0.4487  2.00568558 21978
1 40534U 15013A   18086.12206671 -.00000050  00000-0  00000+0 0  9999
2 40534  54.7987 328.1992 0027605 359.6994   0.3449  2.00568516 22004
1 40534U 15013A   18086.62063729 -.00000050  00000-0  00000+0 0  9999
2 40534  54.7985 328.1788 0027605 359.7988   0.2471  2.00568443 22013
1 40534U 15013A   18087.11920580 -.00000050  00000-0  00000-0 0  9992
2 40534  54.7982 328.1584 0027617 359.8199   0.2271  2.00568444 21593
1 40534U 15013A   18088.11634427 -.00000053  00000-0  00000-0 0  9998
2 40534  54.7977 328.1177 0027624 359.9233   0.1259  2.00568406 21619
1 40534U 15013A   18088.11634435 -.00000053  00000-0  00000+0 0  9996
2 40534  54.7977 328.1177 0027619 359.9175   0.1317  2.00568413 22049
1 40534U 15013A   18089.11348122 -.00000056  00000-0  00000-0 0  9996
2 40534  54.7972 328.0769 0027638 359.9973   0.0532  2.00568384 21636
1 40534U 15013A   18089.11348154 -.00000056  00000-0  00000+0 0  9990
2 40534  54.7972 328.0769 0027636 359.9954   0.0550  2.00568379 22065
1 40534U 15013A   18090.11061665 -.00000062  00000-0  00000+0 0  9998
2 40534  54.7966 328.0362 0027646   0.0609 359.9896  2.00568380 22082
